IRIDIUM 65 [+]          
1 25288U 98021D   16104.31906179  .00000287  00000-0  95368-4 0  9995
2 25288  86.3987  43.5596 0002113  80.4255 279.7180 14.34213345943405
IRIDIUM 66 [+]          
1 25289U 98021E   16104.34711150  .00000267  00000-0  88325-4 0  9995
2 25289  86.3988  43.4550 0002215  81.2541  30.8886 14.34214014943409
IRIDIUM 67 [+]          
1 25290U 98021F   16104.33174186  .00000281  00000-0  93240-4 0  9996
2 25290  86.3988  43.5914 0002210  82.8954 277.2493 14.34213840943414
IRIDIUM 68 [+]          
1 25291U 98021G   16104.33809213  .00000285  00000-0  94734-4 0  9996
2 25291  86.3990  43.6993 0002284  81.4944 278.6510 14.34212446943383
IRIDIUM 69 [-]          
1 25319U 98026A   16104.40227129  .00000270  00000-0  81810-4 0  9995
2 25319  86.3986  66.5232 0000761 144.9633 215.1615 14.38578146941248
IRIDIUM 71 [-]          
1 25320U 98026B   16104.37704570  .00000208  00000-0  60851-4 0  9996
2 25320  86.3974  62.6303 0001770  27.7992 332.3301 14.38998183941656
IRIDIUM 70 [+]          
1 25342U 98032A   16104.38552536  .00000283  00000-0  93832-4 0  9999
2 25342  86.3993  43.9009 0002211  80.0732  33.9504 14.34213773937498
IRIDIUM 72 [+]          
1 25343U 98032B   16104.37334794  .00000280  00000-0  92942-4 0  9991
2 25343  86.3988  43.5460 0002199  82.2849  34.3442 14.34213310937491
IRIDIUM 73 [-]          
1 25344U 98032C   16104.32545114  .00000263  00000-0  64016-4 0  9999
2 25344  86.4470  24.5940 0002907  80.7493 279.4039 14.48921679945308
IRIDIUM 74 [S]          
1 25345U 98032D   16104.34788286  .00000327  00000-0  91827-4 0  9992
2 25345  86.4541  43.8866 0001711  96.2097  15.8657 14.42934433940762
IRIDIUM 75 [+]          
1 25346U 98032E   16104.51392963  .00000300  00000-0  10001-3 0  9990
2 25346  86.3990  43.7243 0002225  83.4391   5.8383 14.34213585938080
IRIDIUM 3 [+]           
1 25431U 98048A   16104.44198755  .00000053  00000-0  11804-4 0  9995
2 25431  86.3947  75.3620 0002188  82.2878  75.7946 14.34218735924013
IRIDIUM 76 [+]          
1 25432U 98048B   16104.45225157  .00000058  00000-0  13771-4 0  9994
2 25432  86.3944  75.1258 0002362  83.9139  29.3120 14.34216894924000
IRIDIUM 82 [+]          
1 25467U 98051A   16104.32985114  .00000333  00000-0  11191-3 0  9997
2 25467  86.4047 201.7966 0002065 103.9199 256.2226 14.34220821925009
IRIDIUM 81 [+]          
1 25468U 98051B   16104.32350952  .00000287  00000-0  95484-4 0  9990
2 25468  86.4016 201.4325 0002288  99.9519 260.1935 14.34223236921223
IRIDIUM 80 [+]          
1 25469U 98051C   16104.53178705  .00000311  00000-0  10406-3 0  9996
2 25469  86.4020 201.6123 0002392  99.9016 353.2242 14.34221482921254
IRIDIUM 77 [+]          
1 25471U 98051E   16104.32203166  .00000309  00000-0  10322-3 0  9990
2 25471  86.4011 201.3122 0002276  95.5287 322.5526 14.34221647926427
IRIDIUM 2 [-]           
1 25527U 98066A   16104.56582748  .00004287  00000-0  22774-3 0  9993
2 25527  85.5279 285.5210 0008170 217.0444 143.0232 15.14990735952791
IRIDIUM 86 [+]          
1 25528U 98066B   16104.54842829  .00000254  00000-0  83575-4 0  9998
2 25528  86.3994 169.4342 0002204  91.4599 268.6849 14.34222240917786
IRIDIUM 84 [+]          
1 25530U 98066D   16104.23129278  .00000247  00000-0  81148-4 0  9999
2 25530  86.3996 169.7240 0002378  97.5797 262.5669 14.34222607915373
IRIDIUM 83 [+]          
1 25531U 98066E   16104.54208335  .00000232  00000-0  75840-4 0  9992
2 25531  86.3998 169.7019 0002378  97.1384 263.0082 14.34222291912773
IRIDIUM 20 [+]          
1 25577U 98074A   16104.46204105  .00000043  00000-0  83687-5 0  9992
2 25577  86.3944  75.0491 0002207  85.4316 274.7131 14.34216800906847
IRIDIUM 11 [+]          
1 25578U 98074B   16104.43536287  .00000027  00000-0  25250-5 0  9993
2 25578  86.3942  75.2662 0002137  86.7072  70.2386 14.34217109915803
IRIDIUM 14 [S]          
1 25777U 99032A   16104.47225046  .00000284  00000-0  94349-4 0  9990
2 25777  86.3990  43.5785 0002151  79.6144  56.4408 14.34213409893083
IRIDIUM 21 [+]          
1 25778U 99032B   16104.34442724  .00000266  00000-0  87769-4 0  9999
2 25778  86.3989  43.6560 0002355  84.0927 276.0537 14.34213848886508
IRIDIUM 91 [+]          
1 27372U 02005A   16104.54451484  .00000077  00000-0  20260-4 0  9993
2 27372  86.3940 107.4207 0002173  95.7979  17.3091 14.34213743750042
IRIDIUM 90 [S]          
1 27373U 02005B   16104.51957862  .00000277  00000-0  76751-4 0  9990
2 27373  86.4508 169.6787 0002408  92.0179 268.1297 14.42947476749396
IRIDIUM 94 [S]          
1 27374U 02005C   16104.44579106  .00000164  00000-0  51656-4 0  9996
2 27374  86.3942  75.3829 0002930  68.3181  44.1441 14.34216483754350
IRIDIUM 95 [+]          
1 27375U 02005D   16104.42103808  .00000017  00000-0 -10101-5 0  9996
2 27375  86.3939 107.2547 0002291  84.1401 276.0056 14.34214817749317
IRIDIUM 96 [S]          
1 27376U 02005E   16104.46886140 -.00000000  00000-0 -72423-5 0  9996
2 27376  86.3984 138.7294 0003765  96.0455 264.1169 14.34219579754526
IRIDIUM 97 [+]          
1 27450U 02031A   16104.50690085  .00000017  00000-0 -11530-5 0  9993
2 27450  86.3952 138.5479 0002299  98.5376 261.6080 14.34218063728642
IRIDIUM 98 [S]          
1 27451U 02031B   16104.36788204  .00000361  00000-0  12173-3 0  9992
2 27451  86.4010 201.8638 0002281 102.4271 323.0796 14.34219484729691
